{
  "type": "FeatureCollection",
  "features": [
    {
      "type": "Feature",
      "properties": {
        "norad_id": 40889,
        "name": "GSAT0205 (GALILEO 9)",
        "group": "galileo",
        "lat": -20.236326833975077,
        "lon": 61.941618189074944,
        "alt_km": 23241.897201969718,
        "timestamp": "2025-12-04T05:42:43.636029+00:00",
        "meta_object_name": "GSAT0205 (GALILEO 9)",
        "meta_object_id": "2015-045A",
        "meta_epoch": "2025-12-02T03:27:57.508704",
        "meta_mean_motion": 1.70472886,
        "meta_eccentricity": 0.00058353,
        "meta_inclination": 55.0073,
        "meta_ra_of_asc_node": 227.0512,
        "meta_arg_of_pericenter": 38.3993,
        "meta_mean_anomaly": 321.7247,
        "meta_ephemeris_type": 0,
        "meta_classification_type": "U",
        "meta_norad_cat_id": 40889,
        "meta_element_set_no": 999,
        "meta_rev_at_epoch": 6365,
        "meta_bstar": 0,
        "meta_mean_motion_dot": 3.5e-07,
        "meta_mean_motion_ddot": 0,
        "tle_line1": "1 40889U 15045A   25336.14441561  .00000035  00000+0  00000+0 0  9995",
        "tle_line2": "2 40889  55.0073 227.0512 0005835  38.3993 321.7247  1.70472886 63655"
      },
      "geometry": {
        "type": "Point",
        "coordinates": [
          61.941618189074944,
          -20.236326833975077
        ]
      }
    },
    {
      "type": "Feature",
      "properties": {
        "norad_id": 40890,
        "name": "GSAT0206 (GALILEO 10)",
        "group": "galileo",
        "lat": 50.140838899559476,
        "lon": -76.09247708009417,
        "alt_km": 23208.482596837974,
        "timestamp": "2025-12-04T05:42:43.636055+00:00",
        "meta_object_name": "GSAT0206 (GALILEO 10)",
        "meta_object_id": "2015-045B",
        "meta_epoch": "2025-12-01T18:40:58.746144",
        "meta_mean_motion": 1.70473031,
        "meta_eccentricity": 0.0003438,
        "meta_inclination": 55.0064,
        "meta_ra_of_asc_node": 227.0564,
        "meta_arg_of_pericenter": 30.2471,
        "meta_mean_anomaly": 329.8532,
        "meta_ephemeris_type": 0,
        "meta_classification_type": "U",
        "meta_norad_cat_id": 40890,
        "meta_element_set_no": 999,
        "meta_rev_at_epoch": 6367,
        "meta_bstar": 0,
        "meta_mean_motion_dot": 3.4e-07,
        "meta_mean_motion_ddot": 0,
        "tle_line1": "1 40890U 15045B   25335.77845771  .00000034  00000+0  00000+0 0  9995",
        "tle_line2": "2 40890  55.0064 227.0564 0003438  30.2471 329.8532  1.70473031 63674"
      },
      "geometry": {
        "type": "Point",
        "coordinates": [
          -76.09247708009417,
          50.140838899559476
        ]
      }
    },
    {
      "type": "Feature",
      "properties": {
        "norad_id": 41174,
        "name": "GSAT0209 (GALILEO 12)",
        "group": "galileo",
        "lat": -27.314399604099833,
        "lon": 85.97199868374955,
        "alt_km": 23219.731303042943,
        "timestamp": "2025-12-04T05:42:43.636069+00:00",
        "meta_object_name": "GSAT0209 (GALILEO 12)",
        "meta_object_id": "2015-079A",
        "meta_epoch": "2025-12-01T22:43:10.411392",
        "meta_mean_motion": 1.70474306,
        "meta_eccentricity": 0.0002352,
        "meta_inclination": 55.7062,
        "meta_ra_of_asc_node": 106.6773,
        "meta_arg_of_pericenter": 357.4206,
        "meta_mean_anomaly": 2.5431,
        "meta_ephemeris_type": 0,
        "meta_classification_type": "U",
        "meta_norad_cat_id": 41174,
        "meta_element_set_no": 999,
        "meta_rev_at_epoch": 6141,
        "meta_bstar": 0,
        "meta_mean_motion_dot": 3.5e-07,
        "meta_mean_motion_ddot": 0,
        "tle_line1": "1 41174U 15079A   25335.94664828  .00000035  00000+0  00000+0 0  9990",
        "tle_line2": "2 41174  55.7062 106.6773 0002352 357.4206   2.5431  1.70474306 61412"
      },
      "geometry": {
        "type": "Point",
        "coordinates": [
          85.97199868374955,
          -27.314399604099833
        ]
      }
    },
    {
      "type": "Feature",
      "properties": {
        "norad_id": 41175,
        "name": "GSAT0208 (GALILEO 11)",
        "group": "galileo",
        "lat": -9.240332604561722,
        "lon": -67.03779239243623,
        "alt_km": 23229.273147218155,
        "timestamp": "2025-12-04T05:42:43.636080+00:00",
        "meta_object_name": "GSAT0208 (GALILEO 11)",
        "meta_object_id": "2015-079B",
        "meta_epoch": "2025-12-03T08:09:32.138784",
        "meta_mean_motion": 1.70474152,
        "meta_eccentricity": 0.00019072,
        "meta_inclination": 55.7055,
        "meta_ra_of_asc_node": 106.6362,
        "meta_arg_of_pericenter": 9.6551,
        "meta_mean_anomaly": 350.3047,
        "meta_ephemeris_type": 0,
        "meta_classification_type": "U",
        "meta_norad_cat_id": 41175,
        "meta_element_set_no": 999,
        "meta_rev_at_epoch": 6185,
        "meta_bstar": 0,
        "meta_mean_motion_dot": 2.2e-07,
        "meta_mean_motion_ddot": 0,
        "tle_line1": "1 41175U 15079B   25337.33995531  .00000022  00000+0  00000+0 0  9990",
        "tle_line2": "2 41175  55.7055 106.6362 0001907   9.6551 350.3047  1.70474152 61857"
      },
      "geometry": {
        "type": "Point",
        "coordinates": [
          -67.03779239243623,
          -9.240332604561722
        ]
      }
    },
    {
      "type": "Feature",
      "properties": {
        "norad_id": 41549,
        "name": "GSAT0211 (GALILEO 14)",
        "group": "galileo",
        "lat": 48.01922601396727,
        "lon": -3.573578025943599,
        "alt_km": 23219.493430186663,
        "timestamp": "2025-12-04T05:42:43.636091+00:00",
        "meta_object_name": "GSAT0211 (GALILEO 14)",
        "meta_object_id": "2016-030A",
        "meta_epoch": "2025-12-01T16:54:04.942368",
        "meta_mean_motion": 1.70472896,
        "meta_eccentricity": 0.00038995,
        "meta_inclination": 55.1563,
        "meta_ra_of_asc_node": 227.1275,
        "meta_arg_of_pericenter": 10.5053,
        "meta_mean_anomaly": 349.5828,
        "meta_ephemeris_type": 0,
        "meta_classification_type": "U",
        "meta_norad_cat_id": 41549,
        "meta_element_set_no": 999,
        "meta_rev_at_epoch": 5930,
        "meta_bstar": 0,
        "meta_mean_motion_dot": 3.3e-07,
        "meta_mean_motion_ddot": 0,
        "tle_line1": "1 41549U 16030A   25335.70422387  .00000033  00000+0  00000+0 0  9998",
        "tle_line2": "2 41549  55.1563 227.1275 0003899  10.5053 349.5828  1.70472896 59309"
      },
      "geometry": {
        "type": "Point",
        "coordinates": [
          -3.573578025943599,
          48.01922601396727
        ]
      }
    },
    {
      "type": "Feature",
      "properties": {
        "norad_id": 41550,
        "name": "GSAT0210 (GALILEO 13)",
        "group": "galileo",
        "lat": -34.01885258584089,
        "lon": -160.9467490416697,
        "alt_km": 23225.568313397856,
        "timestamp": "2025-12-04T05:42:43.636103+00:00",
        "meta_object_name": "GSAT0210 (GALILEO 13)",
        "meta_object_id": "2016-030B",
        "meta_epoch": "2025-12-03T03:14:10.364352",
        "meta_mean_motion": 1.70473449,
        "meta_eccentricity": 0.00012228,
        "meta_inclination": 55.1551,
        "meta_ra_of_asc_node": 227.0861,
        "meta_arg_of_pericenter": 241.4534,
        "meta_mean_anomaly": 118.6225,
        "meta_ephemeris_type": 0,
        "meta_classification_type": "U",
        "meta_norad_cat_id": 41550,
        "meta_element_set_no": 999,
        "meta_rev_at_epoch": 5932,
        "meta_bstar": 0,
        "meta_mean_motion_dot": 3.9e-07,
        "meta_mean_motion_ddot": 0,
        "tle_line1": "1 41550U 16030B   25337.13484218  .00000039  00000+0  00000+0 0  9996",
        "tle_line2": "2 41550  55.1551 227.0861 0001222 241.4534 118.6225  1.70473449 59328"
      },
      "geometry": {
        "type": "Point",
        "coordinates": [
          -160.9467490416697,
          -34.01885258584089
        ]
      }
    },
    {
      "type": "Feature",
      "properties": {
        "norad_id": 41859,
        "name": "GSAT0207 (GALILEO 15)",
        "group": "galileo",
        "lat": 27.178768837912045,
        "lon": -94.29764648391023,
        "alt_km": 23225.187489637872,
        "timestamp": "2025-12-04T05:42:43.636114+00:00",
        "meta_object_name": "GSAT0207 (GALILEO 15)",
        "meta_object_id": "2016-069A",
        "meta_epoch": "2025-12-03T09:54:53.472960",
        "meta_mean_motion": 1.70474233,
        "meta_eccentricity": 0.00021356,
        "meta_inclination": 55.3776,
        "meta_ra_of_asc_node": 106.5086,
        "meta_arg_of_pericenter": 326.0085,
        "meta_mean_anomaly": 33.9336,
        "meta_ephemeris_type": 0,
        "meta_classification_type": "U",
        "meta_norad_cat_id": 41859,
        "meta_element_set_no": 999,
        "meta_rev_at_epoch": 5606,
        "meta_bstar": 0,
        "meta_mean_motion_dot": 2e-07,
        "meta_mean_motion_ddot": 0,
        "tle_line1": "1 41859U 16069A   25337.41311890  .00000020  00000+0  00000+0 0  9996",
        "tle_line2": "2 41859  55.3776 106.5086 0002135 326.0085  33.9336  1.70474233 56068"
      },
      "geometry": {
        "type": "Point",
        "coordinates": [
          -94.29764648391023,
          27.178768837912045
        ]
      }
    }
  ]
}